ONEWEB-0027             
1 45432U 20020J   23253.82300672 -.00000005  00000+0 -46254-4 0  9996
2 45432  87.9139 206.6414 0001949  70.2457 289.8884 13.17650868173304
ONEWEB-0064             
1 45433U 20020K   23253.93963702 -.00000424  00000+0 -12318-2 0  9995
2 45433  87.8927 221.7429 0002176  74.3164 285.8204 13.11412543170282
ONEWEB-0018             
1 45434U 20020L   23253.66624596  .00000460  00000+0  12623-2 0  9998
2 45434  87.8935 221.7841 0002081  88.0601 272.0765 13.11417624170198
ONEWEB-0083             
1 45435U 20020M   23253.80824423  .00000096  00000+0  23386-3 0  9990
2 45435  87.8928 221.7441 0001914  81.0122 279.1223 13.11419029170257
ONEWEB-0095             
1 45436U 20020N   23253.95715323 -.00000095  00000+0 -30454-3 0  9990
2 45436  87.8936 221.7496 0001771  77.3189 282.8137 13.11417723170275
ONEWEB-0092             
1 45437U 20020P   23254.14734111  .00000215  00000+0  56979-3 0  9991
2 45437  87.8931 221.6885 0001723  78.3538 281.7783 13.11413721170402
ONEWEB-0085             
1 45438U 20020Q   23253.42039855 -.00000159  00000+0 -48429-3 0  9995
2 45438  87.8928 221.8432 0002210  83.3452 276.7928 13.11418203170193
ONEWEB-0096             
1 45439U 20020R   23253.81037603  .00000203  00000+0  53644-3 0  9991
2 45439  87.8925 221.7406 0002182  89.3013 270.8365 13.11418791170246
